ONEWEB-0230             
1 48769U 21045C   23281.88515792  .00000270  00000+0  68250-3 0  9999
2 48769  87.8942  94.8288 0001819  87.3383 272.7955 13.15547502115517
ONEWEB-0237             
1 48770U 21045D   23281.87456144  .00000952  00000+0  24939-2 0  9997
2 48770  87.8930  94.7500 0002450  77.4228 282.7176 13.15553129115239
ONEWEB-0235             
1 48771U 21045E   23281.84711323  .00000096  00000+0  22069-3 0  9990
2 48771  87.8935  94.7844 0002425  73.8114 286.3283 13.15545754115225
ONEWEB-0242             
1 48772U 21045F   23281.76472686  .00000154  00000+0  37452-3 0  9995
2 48772  87.8935  94.7914 0001965  84.9780 275.1575 13.15547946115252
ONEWEB-0241             
1 48773U 21045G   23281.52387287  .00000045  00000+0  85760-4 0  9997
2 48773  87.8943  94.8625 0001618  70.6510 289.4795 13.15550161115132
ONEWEB-0243             
1 48774U 21045H   23281.85979566  .00000127  00000+0  30320-3 0  9993
2 48774  87.8943  94.7526 0002168  80.7694 279.3681 13.15547432115205
ONEWEB-0222             
1 48775U 21045J   23281.84921129  .00000174  00000+0  42739-3 0  9994
2 48775  87.8934  94.7884 0001756  75.1206 285.0118 13.15550746115247
ONEWEB-0244             
1 48776U 21045K   23281.87034774  .00000136  00000+0  32599-3 0  9990
2 48776  87.8933  94.7680 0001916  87.4180 272.7169 13.15545013115819
